0 FALCON 9 DEB
1 39274U 13055J   13282.42938598  .00669523  00000-0  64181-1 0    75
2 39274 080.9253 305.7147 0612043 131.0911 235.4361 14.06660809  1378
0 FALCON 9 DEB
1 39274U 13055J   13282.78480110  .00962065  00000-0  91358-1 0    80
2 39274 080.9257 305.3472 0607429 130.6755 235.4305 14.07510152  1422
0 FALCON 9 DEB
1 39274U 13055J   13283.06899778  .00896823  00000-0  85095-1 0    96
2 39274 080.9252 305.0523 0605988 129.6841 235.8204 14.07938194  1469
0 FALCON 9 DEB
1 39274U 13055J   13283.28219652  .00872310  00000-0  83331-1 0   105
2 39274 080.9232 304.8339 0603632 129.1511 236.3831 14.08233559  1491
0 FALCON 9 DEB
1 39274U 13055J   13284.48924213  .00546420  00000-0  53392-1 0   119
2 39274 080.9144 303.6372 0596417 126.1476 237.5039 14.09376183  1660
0 FALCON 9 DEB
1 39274U 13055K   13285.55422653  .00511892  00000-0  51347-1 0   145
2 39274 080.9096 302.5644 0587496 122.9056 242.9678 14.10364801  1813
0 FALCON 9 DEB
1 39274U 13055K   13286.05076646  .00508125  00000-0  50468-1 0   157
2 39274 080.9077 302.0625 0586712 121.5280 244.4146 14.10830466  1889
0 FALCON 9 DEB
1 39274U 13055K   13286.54715488  .00504346  00000-0  50203-1 0   164
2 39274 080.9059 301.5587 0584044 120.0789 245.9294 14.11284577  1959
0 FALCON 9 DEB
1 39274U 13055K   13287.04337071  .00505436  00000-0  49950-1 0   177
2 39274 080.9056 301.0546 0582745 118.6186 247.4557 14.11755378  2026
0 FALCON 9 DEB
1 39274U 13055K   13287.46858358  .00501728  00000-0  50086-1 0   182
2 39274 080.9055 300.6211 0579204 117.4061 248.6741 14.12131199  2088
0 FALCON 9 DEB
1 39274U 13055K   13287.75198939  .00502833  00000-0  49986-1 0   192
2 39274 080.9048 300.3338 0578474 116.6230 249.5131 14.12399038  2120
0 FALCON 9 DEB
1 39274U 13055K   13288.24779722  .00525705  00000-0  50927-1 0   204
2 39274 080.8945 299.8321 0579426 115.3956 251.1196 14.12963298  2190
0 FALCON 9 DEB
1 39274U 13055K   13289.02647540  .00839878  00000-0  81860-1 0   213
2 39274 080.8965 299.0566 0567803 112.7128 255.2781 14.14557643  2306
0 FALCON 9 DEB
1 39274U 13055K   13290.36903448  .00640746  00000-0  63804-1 0   227
2 39274 080.8908 297.6881 0557136 108.2532 256.2500 14.16092451  2497
0 FALCON 9 DEB
1 39274U 13055K   13290.51069154  .00622918  00000-0  63073-1 0   220
2 39274 080.8948 297.5357 0561222 108.0801 258.3162 14.16304896996089
0 FALCON 9 DEB
1 39274U 13055K   13290.79324230  .00678933  00000-0  67200-1 0   256
2 39274 080.8945 297.2615 0554594 106.9182 259.4517 14.16672347  2558
0 FALCON 9 DEB
1 39274U 13055K   13291.07569768  .00768081  00000-0  75445-1 0   260
2 39274 080.8885 296.9721 0553626 106.0378 260.3474 14.17160383  2598
0 FALCON 9 DEB
1 39274U 13055K   13291.35804989  .00774257  00000-0  74992-1 0   277
2 39274 080.8897 296.6807 0552283 105.2483 261.0264 14.17562121  2635
0 FALCON 9 DEB
1 39274U 13055K   13291.85201935  .00763427  00000-0  73298-1 0   280
2 39274 080.8902 296.1760 0550275 103.7999 262.4634 14.18245388  2707
0 FALCON 9 DEB
1 39274U 13055K   13292.13418279  .00742111  00000-0  71345-1 0   292
2 39274 080.8866 295.8855 0548388 102.8733 263.3680 14.18613659  2740
0 FALCON 9 DEB
1 39274U 13055K   13292.34576435  .00739783  00000-0  71034-1 0   302
2 39274 080.8877 295.6689 0547111 102.2364 264.0430 14.18900261  2774
0 FALCON 9 DEB
1 39274U 13055K   13293.33251452  .00771483  00000-0  72796-1 0   311
2 39274 080.8873 294.6586 0542100 099.1411 267.1687 14.20321900  2919
0 FALCON 9 DEB
1 39274U 13055K   13293.82549914  .00791140  00000-0  74636-1 0   326
2 39274 080.8880 294.1504 0539423 097.6154 268.6760 14.21076145  2987
0 FALCON 9 DEB
1 39274U 13055K   13294.10708674  .00811937  00000-0  76063-1 0   332
2 39274 080.8839 293.8609 0537944 096.6635 269.6545 14.21533484  3024
0 FALCON 9 DEB
1 39274U 13055K   13294.38857555  .00843192  00000-0  77971-1 0   343
2 39274 080.8885 293.5745 0537218 096.0036 270.3330 14.22014247  3063
0 FALCON 9 DEB
1 39274U 13055K   13294.88093213  .00912043  00000-0  82848-1 0   353
2 39274 080.8876 293.0656 0534646 094.2397 272.0441 14.22917215  3138
0 FALCON 9 DEB
1 39274U 13055K   13295.09184765  .00935944  00000-0  84444-1 0   360
2 39274 080.8839 292.8497 0533403 093.4221 272.8517 14.23315832  3167
0 FALCON 9 DEB
1 39274U 13055K   13295.37297831  .00962615  00000-0  85980-1 0   372
2 39274 080.8859 292.5594 0531987 092.6104 273.6477 14.23844024  3209
0 FALCON 9 DEB
1 39274U 13055K   13295.72423921  .01002094  00000-0  88258-1 0   381
2 39274 080.8876 292.1992 0530242 091.6617 274.5758 14.24531820  3252
0 FALCON 9 DEB
1 39274U 13055K   13296.00512629  .01072616  00000-0  94979-1 0   392
2 39274 080.8907 291.9036 0526694 090.6378 275.8428 14.25220176  3294
